{"type": "FeatureCollection", "features": [ {"type": "Feature", "properties": {"norad_id": 43622, "name": "BEIDOU-3 M13 (C32)", "group": "beidou", "lat": 49.01151518989274, "lon": 117.98875159288461, "alt_km": 21533.108284628586, "timestamp": "2025-12-27T19:21:59.016190+00:00", "meta": {"OBJECT_NAME": "BEIDOU-3 M13 (C32)", "OBJECT_ID": "2018-072A", "EPOCH": "2025-12-26T15:16:14.846880", "MEAN_MOTION": 1.86231061, "ECCENTRICITY": 0.00064836, "INCLINATION": 56.4704, "RA_OF_ASC_NODE": 68.3605, "ARG_OF_PERICENTER": 297.9888, "MEAN_ANOMALY": 61.997, "EPHEMERIS_TYPE": 0, "CLASSIFICATION_TYPE": "U", "NORAD_CAT_ID": 43622, "ELEMENT_SET_NO": 999, "REV_AT_EPOCH": 4944, "BSTAR": 0, "MEAN_MOTION_DOT": -3.2e-07, "MEAN_MOTION_DDOT": 0}, "tle": {"line1": "1 43622U 18072A   25360.63628295 -.00000032  00000+0  00000+0 0  9996", "line2": "2 43622  56.4704  68.3605 0006483 297.9888  61.9970  1.86231061 49446"}}, "geometry": {"type": "Point", "coordinates": [117.98875159288461, 49.01151518989274]}}, {"type": "Feature", "properties": {"norad_id": 43623, "name": "BEIDOU-3 M14 (C33)", "group": "beidou", "lat": 20.567638664573828, "lon": -126.05645917997069, "alt_km": 21535.665173119545, "timestamp": "2025-12-27T19:21:59.016203+00:00", "meta": {"OBJECT_NAME": "BEIDOU-3 M14 (C33)", "OBJECT_ID": "2018-072B", "EPOCH": "2025-12-26T12:02:31.218144", "MEAN_MOTION": 1.86231056, "ECCENTRICITY": 0.00036352, "INCLINATION": 56.4724, "RA_OF_ASC_NODE": 68.3589, "ARG_OF_PERICENTER": 326.7942, "MEAN_ANOMALY": 33.2347, "EPHEMERIS_TYPE": 0, "CLASSIFICATION_TYPE": "U", "NORAD_CAT_ID": 43623, "ELEMENT_SET_NO": 999, "REV_AT_EPOCH": 4943, "BSTAR": 0, "MEAN_MOTION_DOT": -3.2e-07, "MEAN_MOTION_DDOT": 0}, "tle": {"line1": "1 43623U 18072B   25360.50175021 -.00000032  00000+0  00000+0 0  9997", "line2": "2 43623  56.4724  68.3589 0003635 326.7942  33.2347  1.86231056 49431"}}, "geometry": {"type": "Point", "coordinates": [-126.05645917997069, 20.567638664573828]}}, {"type": "Feature", "properties": {"norad_id": 43647, "name": "BEIDOU-3 M16 (C35)", "group": "beidou", "lat": 38.08206481151275, "lon": -19.693022769710474, "alt_km": 21504.950127535845, "timestamp": "2025-12-27T19:21:59.016213+00:00", "meta": {"OBJECT_NAME": "BEIDOU-3 M16 (C35)", "OBJECT_ID": "2018-078A", "EPOCH": "2025-12-26T02:56:19.347360", "MEAN_MOTION": 1.86232218, "ECCENTRICITY": 0.0007499, "INCLINATION": 54.2494, "RA_OF_ASC_NODE": 306.0535, "ARG_OF_PERICENTER": 20.7112, "MEAN_ANOMALY": 339.3289, "EPHEMERIS_TYPE": 0, "CLASSIFICATION_TYPE": "U", "NORAD_CAT_ID": 43647, "ELEMENT_SET_NO": 999, "REV_AT_EPOCH": 4893, "BSTAR": 0, "MEAN_MOTION_DOT": -5.5e-07, "MEAN_MOTION_DDOT": 0}, "tle": {"line1": "1 43647U 18078A   25360.12244615 -.00000055  00000+0  00000+0 0  9998", "line2": "2 43647  54.2494 306.0535 0007499  20.7112 339.3289  1.86232218 48932"}}, "geometry": {"type": "Point", "coordinates": [-19.693022769710474, 38.08206481151275]}}, {"type": "Feature", "properties": {"norad_id": 43648, "name": "BEIDOU-3 M15 (C34)", "group": "beidou", "lat": -29.445964457230982, "lon": -77.99545583843556, "alt_km": 21525.50442491412, "timestamp": "2025-12-27T19:21:59.016223+00:00", "meta": {"OBJECT_NAME": "BEIDOU-3 M15 (C34)", "OBJECT_ID": "2018-078B", "EPOCH": "2025-12-27T07:48:48.610368", "MEAN_MOTION": 1.86232284, "ECCENTRICITY": 0.0004082, "INCLINATION": 54.2443, "RA_OF_ASC_NODE": 306.0127, "ARG_OF_PERICENTER": 20.0371, "MEAN_ANOMALY": 339.9874, "EPHEMERIS_TYPE": 0, "CLASSIFICATION_TYPE": "U", "NORAD_CAT_ID": 43648, "ELEMENT_SET_NO": 999, "REV_AT_EPOCH": 4897, "BSTAR": 0, "MEAN_MOTION_DOT": -6e-07, "MEAN_MOTION_DDOT": 0}, "tle": {"line1": "1 43648U 18078B   25361.32556262 -.00000060  00000+0  00000+0 0  9992", "line2": "2 43648  54.2443 306.0127 0004082  20.0371 339.9874  1.86232284 48972"}}, "geometry": {"type": "Point", "coordinates": [-77.99545583843556, -29.445964457230982]}}, {"type": "Feature", "properties": {"norad_id": 43683, "name": "BEIDOU-3 G1 (C59)", "group": "beidou", "lat": 2.3933950737537866, "lon": 166.9919260547044, "alt_km": 35776.10358697507, "timestamp": "2025-12-27T19:21:59.016233+00:00", "meta": {"OBJECT_NAME": "BEIDOU-3 G1 (C59)", "OBJECT_ID": "2018-085A", "EPOCH": "2025-12-27T11:57:18.832032", "MEAN_MOTION": 1.00276338, "ECCENTRICITY": 0.0002014, "INCLINATION": 2.6425, "RA_OF_ASC_NODE": 102.5295, "ARG_OF_PERICENTER": 59.0342, "MEAN_ANOMALY": 253.9772, "EPHEMERIS_TYPE": 0, "CLASSIFICATION_TYPE": "U", "NORAD_CAT_ID": 43683, "ELEMENT_SET_NO": 999, "REV_AT_EPOCH": 2633, "BSTAR": 0, "MEAN_MOTION_DOT": -2.55e-06, "MEAN_MOTION_DDOT": 0}, "tle": {"line1": "1 43683U 18085A   25361.49813463 -.00000255  00000+0  00000+0 0  9992", "line2": "2 43683   2.6425 102.5295 0002014  59.0342 253.9772  1.00276338 26338"}}, "geometry": {"type": "Point", "coordinates": [166.9919260547044, 2.3933950737537866]}}, {"type": "Feature", "properties": {"norad_id": 43706, "name": "BEIDOU-3 M17 (C36)", "group": "beidou", "lat": -28.63414512086378, "lon": 31.350834261794827, "alt_km": 21532.183235700693, "timestamp": "2025-12-27T19:21:59.016244+00:00", "meta": {"OBJECT_NAME": "BEIDOU-3 M17 (C36)", "OBJECT_ID": "2018-093A", "EPOCH": "2025-12-26T03:36:39.806208", "MEAN_MOTION": 1.86228273, "ECCENTRICITY": 0.00059945, "INCLINATION": 54.1735, "RA_OF_ASC_NODE": 188.1665, "ARG_OF_PERICENTER": 306.9478, "MEAN_ANOMALY": 238.7851, "EPHEMERIS_TYPE": 0, "CLASSIFICATION_TYPE": "U", "NORAD_CAT_ID": 43706, "ELEMENT_SET_NO": 999, "REV_AT_EPOCH": 4831, "BSTAR": 0, "MEAN_MOTION_DOT": 1.19e-06, "MEAN_MOTION_DDOT": 0}, "tle": {"line1": "1 43706U 18093A   25360.15046072  .00000119  00000+0  00000+0 0  9991", "line2": "2 43706  54.1735 188.1665 0005994 306.9478 238.7851  1.86228273 48315"}}, "geometry": {"type": "Point", "coordinates": [31.350834261794827, -28.63414512086378]}}, {"type": "Feature", "properties": {"norad_id": 43707, "name": "BEIDOU-3 M18 (C37)", "group": "beidou", "lat": -39.028967980566094, "lon": 152.24651599203162, "alt_km": 21521.111079607315, "timestamp": "2025-12-27T19:21:59.016254+00:00", "meta": {"OBJECT_NAME": "BEIDOU-3 M18 (C37)", "OBJECT_ID": "2018-093B", "EPOCH": "2025-12-26T19:24:55.355328", "MEAN_MOTION": 1.86226544, "ECCENTRICITY": 0.00060982, "INCLINATION": 54.1738, "RA_OF_ASC_NODE": 188.1361, "ARG_OF_PERICENTER": 353.9736, "MEAN_ANOMALY": 6.054, "EPHEMERIS_TYPE": 0, "CLASSIFICATION_TYPE": "U", "NORAD_CAT_ID": 43707, "ELEMENT_SET_NO": 999, "REV_AT_EPOCH": 4832, "BSTAR": 0, "MEAN_MOTION_DOT": 1.25e-06, "MEAN_MOTION_DDOT": 0}, "tle": {"line1": "1 43707U 18093B   25360.80897402  .00000125  00000+0  00000+0 0  9992", "line2": "2 43707  54.1738 188.1361 0006098 353.9736   6.0540  1.86226544 48328"}}, "geometry": {"type": "Point", "coordinates": [152.24651599203162, -39.028967980566094]}}, {"type": "Feature", "properties": {"norad_id": 44231, "name": "BEIDOU-2 G8 (C01)", "group": "beidou", "lat": 1.691554924077387, "lon": 171.5265209839685, "alt_km": 35818.870250113636, "timestamp": "2025-12-27T19:21:59.016265+00:00", "meta": {"OBJECT_NAME": "BEIDOU-2 G8 (C01)", "OBJECT_ID": "2019-027A", "EPOCH": "2025-12-27T13:02:38.745600", "MEAN_MOTION": 1.00273438, "ECCENTRICITY": 0.0008371, "INCLINATION": 1.6971, "RA_OF_ASC_NODE": 74.745, "ARG_OF_PERICENTER": 258.6879, "MEAN_ANOMALY": 103.0306, "EPHEMERIS_TYPE": 0, "CLASSIFICATION_TYPE": "U", "NORAD_CAT_ID": 44231, "ELEMENT_SET_NO": 999, "REV_AT_EPOCH": 2436, "BSTAR": 0, "MEAN_MOTION_DOT": -2.25e-06, "MEAN_MOTION_DDOT": 0}, "tle": {"line1": "1 44231U 19027A   25361.54350400 -.00000225  00000+0  00000+0 0  9999", "line2": "2 44231   1.6971  74.7450 0008371 258.6879 103.0306  1.00273438 24367"}}, "geometry": {"type": "Point", "coordinates": [171.5265209839685, 1.691554924077387]}}, {"type": "Feature", "properties": {"norad_id": 44337, "name": "BEIDOU-3 IGSO-2 (C39)", "group": "beidou", "lat": -11.288358010113386, "lon": 152.37762798280082, "alt_km": 35917.967384003874, "timestamp": "2025-12-27T19:21:59.016275+00:00", "meta": {"OBJECT_NAME": "BEIDOU-3 IGSO-2 (C39)", "OBJECT_ID": "2019-035A", "EPOCH": "2025-12-26T08:27:52.331328", "MEAN_MOTION": 1.00266958, "ECCENTRICITY": 0.0037903, "INCLINATION": 55.2292, "RA_OF_ASC_NODE": 160.3818, "ARG_OF_PERICENTER": 202.693, "MEAN_ANOMALY": 338.2763, "EPHEMERIS_TYPE": 0, "CLASSIFICATION_TYPE": "U", "NORAD_CAT_ID": 44337, "ELEMENT_SET_NO": 999, "REV_AT_EPOCH": 2393, "BSTAR": 0, "MEAN_MOTION_DOT": -6e-07, "MEAN_MOTION_DDOT": 0}, "tle": {"line1": "1 44337U 19035A   25360.35268902 -.00000060  00000+0  00000+0 0  9995", "line2": "2 44337  55.2292 160.3818 0037903 202.6930 338.2763  1.00266958 23935"}}, "geometry": {"type": "Point", "coordinates": [152.37762798280082, -11.288358010113386]}}, {"type": "Feature", "properties": {"norad_id": 44542, "name": "BEIDOU-3 M24 (C46)", "group": "beidou", "lat": -53.516340907654254, "lon": 84.21426827141052, "alt_km": 21549.17698359741, "timestamp": "2025-12-27T19:21:59.016286+00:00", "meta": {"OBJECT_NAME": "BEIDOU-3 M24 (C46)", "OBJECT_ID": "2019-061A", "EPOCH": "2025-12-25T19:20:31.720416", "MEAN_MOTION": 1.86229328, "ECCENTRICITY": 0.00095592, "INCLINATION": 54.4007, "RA_OF_ASC_NODE": 188.5751, "ARG_OF_PERICENTER": 26.2339, "MEAN_ANOMALY": 333.8493, "EPHEMERIS_TYPE": 0, "CLASSIFICATION_TYPE": "U", "NORAD_CAT_ID": 44542, "ELEMENT_SET_NO": 999, "REV_AT_EPOCH": 4256, "BSTAR": 0, "MEAN_MOTION_DOT": 1.16e-06, "MEAN_MOTION_DDOT": 0}, "tle": {"line1": "1 44542U 19061A   25359.80592269  .00000116  00000+0  00000+0 0  9997", "line2": "2 44542  54.4007 188.5751 0009559  26.2339 333.8493  1.86229328 42560"}}, "geometry": {"type": "Point", "coordinates": [84.21426827141052, -53.516340907654254]}}]}